[Satellite]
VERSION=1.1
NAME=ORBCOMM FM108 [+]
NICKNAME=ORBCOMM FM108 [+]
TLE1=1 41187U 15081J   17186.20870103  .00000089  00000-0  32964-4 0  9995
TLE2=2 41187  46.9978 105.9787 0002827   2.9265 357.1649 14.88397397 83551
